NORAD_CAT_ID,OBJECT_NAME,OBJECT_TYPE,EPOCH,MEAN_MOTION,ECCENTRICITY,INCLINATION,RA_OF_ASC_NODE,ARG_OF_PERICENTER,MEAN_ANOMALY,BSTAR,MEAN_MOTION_DOT,MEAN_MOTION_DDOT,TLE_LINE0,TLE_LINE1,TLE_LINE2,SEMIMAJOR_AXIS,PERIOD,APOGEE,PERIGEE,DECAYED
53590.0,STARLINK-4689,PAYLOAD,2022-10-02 06:00:00,15.36251151,0.0001267,53.2171,116.812,100.1237,75.2395,-0.034776,-0.01137953,0.0,0 STARLINK-4689,1 53590U 22104C   22275.25001157 -.01137953  00000-0 -34776-1 0  9999,2 53590  53.2171 116.8120 0001267 100.1237  75.2395 15.36251151  5525,6835.344,93.735,458.075,456.343,0.0
53590.0,STARLINK-4689,PAYLOAD,2022-10-02 14:00:01,15.35458442,0.0001346,53.2169,115.2517,98.1486,121.2394,-0.036065,-0.01149235,0.0,0 STARLINK-4689,1 53590U 22104C   22275.58334491 -.01149235  00000-0 -36065-1 0  9994,2 53590  53.2169 115.2517 0001346  98.1486 121.2394 15.35458442  1309,6837.696,93.783,460.481,458.641,0.0
53590.0,STARLINK-4689,PAYLOAD,2022-10-02 22:00:00,15.34658693,0.0001369,53.2174,113.696,107.976,154.4752,-0.037156,-0.01153539,0.0,0 STARLINK-4689,1 53590U 22104C   22275.91667824 -.01153539  00000-0 -37156-1 0  9994,2 53590  53.2174 113.6960 0001369 107.9760 154.4752 15.34658693  1303,6840.071,93.832,462.87300000000016,461.0,0.0
53590.0,STARLINK-4689,PAYLOAD,2022-10-03 06:00:00,15.33835766,0.0001155,53.2172,112.1388,100.6485,203.9156,-0.037245,-0.01128547,0.0,0 STARLINK-4689,1 53590U 22104C   22276.25001157 -.01128547  00000-0 -37245-1 0  9993,2 53590  53.2172 112.1388 0001155 100.6485 203.9156 15.33835766  5675,6842.518,93.882,465.173,463.592,0.0
53590.0,STARLINK-4689,PAYLOAD,2022-10-03 14:00:01,15.33043974,0.0001193,53.217,110.5843,100.6712,245.0226,-0.038648,-0.01140779,0.0,0 STARLINK-4689,1 53590U 22104C   22276.58334491 -.01140779  00000-0 -38648-1 0  9998,2 53590  53.2170 110.5843 0001193 100.6712 245.0226 15.33043974  1309,6844.874,93.931,467.555,465.922,0.0
53590.0,STARLINK-4689,PAYLOAD,2022-10-03 22:00:00,15.32245912,0.0001193999999999,53.2173,109.0344,95.5053,290.3568,-0.039925,-0.01148349,0.0,0 STARLINK-4689,1 53590U 22104C   22276.91667824 -.01148349  00000-0 -39925-1 0  9994,2 53590  53.2173 109.0344 0001194  95.5053 290.3568 15.32245912  1309,6847.25,93.98,469.9330000000001,468.298,0.0
53590.0,STARLINK-4689,PAYLOAD,2022-10-04 06:00:00,15.31423707,0.0001145,53.2174,107.4827,88.3667,336.713,-0.039969,-0.0112262,0.0,0 STARLINK-4689,1 53590U 22104C   22277.25001157 -.01122620  00000-0 -39969-1 0  9995,2 53590  53.2174 107.4827 0001145  88.3667 336.7130 15.31423707  5836,6849.701,94.03,472.35,470.781,0.0
53590.0,STARLINK-4689,PAYLOAD,2022-10-04 14:00:01,15.30643511,0.0001296999999999,53.2168,105.934,90.9932,12.3165,-0.042118,-0.01151653,0.0,0 STARLINK-4689,1 53590U 22104C   22277.58334491 -.01151653  00000-0 -42118-1 0  9999,2 53590  53.2168 105.9340 0001297  90.9932  12.3165 15.30643511  1303,6852.028,94.078,474.782,473.004,0.0
53590.0,STARLINK-4689,PAYLOAD,2022-10-04 22:00:00,15.29817704,0.0001331999999999,53.2176,104.3897,83.4879,57.1095,-0.041974,-0.01121384,0.0,0 STARLINK-4689,1 53590U 22104C   22277.91667824 -.01121384  00000-0 -41974-1 0  9992,2 53590  53.2176 104.3897 0001332  83.4879  57.1095 15.29817704  1303,6854.494000000002,94.129,477.272,475.446,0.0
53590.0,STARLINK-4689,PAYLOAD,2022-10-05 06:00:00,15.29016217,0.0001346,53.2175,102.8437,89.8012,87.1088,-0.04311,-0.01123278,0.0,0 STARLINK-4689,1 53590U 22104C   22278.25001157 -.01123278  00000-0 -43110-1 0  9999,2 53590  53.2175 102.8437 0001346  89.8012  87.1088 15.29016217  5982,6856.889,94.178,479.677,477.831,0.0
53590.0,STARLINK-4689,PAYLOAD,2022-10-05 14:00:01,15.28219194,0.000135,53.2172,101.3011,97.8265,114.4916,-0.044519,-0.01131063,0.0,0 STARLINK-4689,1 53590U 22104C   22278.58335648 -.01131063  00000-0 -44519-1 0  9995,2 53590  53.2172 101.3011 0001350  97.8265 114.4916 15.28219194  1309,6859.273,94.227,482.064,480.212,0.0
53590.0,STARLINK-4689,PAYLOAD,2022-10-05 22:00:00,15.27407779,0.000135,53.2176,99.7621,92.5338,154.1059,-0.045089,-0.01118524,0.0,0 STARLINK-4689,1 53590U 22104C   22278.91667824 -.01118524  00000-0 -45089-1 0  9996,2 53590  53.2176  99.7621 0001350  92.5338 154.1059 15.27407779  1309,6861.7019999999975,94.277,484.49300000000005,482.641,0.0
53590.0,STARLINK-4689,PAYLOAD,2022-10-06 06:00:00,15.26609471,0.00013,53.2172,98.2218,104.337,175.7198,-0.04655,-0.01126192,0.0,0 STARLINK-4689,1 53590U 22104C   22279.25001157 -.01126192  00000-0 -46550-1 0  9999,2 53590  53.2172  98.2218 0001300 104.3370 175.7198 15.26609471  6135,6864.094,94.327,486.851,485.066,0.0
53590.0,STARLINK-4689,PAYLOAD,2022-10-06 14:00:01,15.2581595,0.0001293,53.217,96.6848,101.6169,210.8881,-0.048246,-0.01153424,0.0,0 STARLINK-4689,1 53590U 22104C   22279.58334491 -.01153424  00000-0 -48246-1 0  9997,2 53590  53.2170  96.6848 0001293 101.6169 210.8881 15.25815950  1305,6866.473000000001,94.376,489.226,487.451,0.0
53590.0,STARLINK-4689,PAYLOAD,2022-10-06 22:42:55,15.2492613,0.0001354,53.217,95.0144,99.6024,48.0388,-0.048519,-0.01116329,0.0,0 STARLINK-4689,1 53590U 22104C   22279.94646991 -.01116329  00000-0 -48519-1 0  9994,2 53590  53.2170  95.0144 0001354  99.6024  48.0388 15.24926130  1306,6869.144,94.431,491.939,490.079,0.0
53590.0,STARLINK-4689,PAYLOAD,2022-10-07 06:00:00,15.24197729,0.0001198,53.2175,93.6167,113.0406,261.4819,-0.049845,-0.01136239,0.0,0 STARLINK-4689,1 53590U 22104C   22280.25001157 -.01136239  00000-0 -49845-1 0  9994,2 53590  53.2175  93.6167 0001198 113.0406 261.4819 15.24197729  6298,6871.333000000001,94.476,494.021,492.374,0.0
53590.0,STARLINK-4689,PAYLOAD,2022-10-07 14:00:01,15.23395708,0.0001222,53.2177,92.0859,109.2318,294.8483,-0.0510959999999999,-0.01137049,0.0,0 STARLINK-4689,1 53590U 22104C   22280.58334491 -.01137049  00000-0 -51096-1 0  9991,2 53590  53.2177  92.0859 0001222 109.2318 294.8483 15.23395708  1308,6873.744000000002,94.526,496.449,494.769,0.0
53590.0,STARLINK-4689,PAYLOAD,2022-10-07 22:00:00,15.22589928,0.0001245,53.217,90.5579,104.0717,328.6024,-0.052103,-0.01132326,0.0,0 STARLINK-4689,1 53590U 22104C   22280.91667824 -.01132326  00000-0 -52103-1 0  9990,2 53590  53.2170  90.5579 0001245 104.0717 328.6024 15.22589928  1309,6876.169,94.576,498.89,497.17800000000005,0.0
53590.0,STARLINK-4689,PAYLOAD,2022-10-08 06:00:00,15.21787407,0.0001256,53.2173,89.0287,95.6006,4.7036,-0.053416,-0.01133457,0.0,0 STARLINK-4689,1 53590U 22104C   22281.25001157 -.01133457  00000-0 -53416-1 0  9993,2 53590  53.2173  89.0287 0001256  95.6006   4.7036 15.21787407  6445,6878.5859999999975,94.626,501.315,499.587,0.0
53590.0,STARLINK-4689,PAYLOAD,2022-10-08 14:00:01,15.20995449,0.0001394,53.2169,87.5032,93.5588,33.4044,-0.055509,-0.01149355,0.0,0 STARLINK-4689,1 53590U 22104C   22281.58334491 -.01149355  00000-0 -55509-1 0  9998,2 53590  53.2169  87.5032 0001394  93.5588  33.4044 15.20995449  1300,6880.974,94.675,503.798,501.879,0.0
53590.0,STARLINK-4689,PAYLOAD,2022-10-08 22:00:00,15.20166384,0.0001331999999999,53.2168,85.98100000000002,101.2845,51.3886,-0.054799,-0.01110427,0.0,0 STARLINK-4689,1 53590U 22104C   22281.91667824 -.01110427  00000-0 -54799-1 0  9992,2 53590  53.2168  85.9810 0001332 101.2845  51.3886 15.20166384  1301,6883.475,94.726,506.257,504.423,0.0
53590.0,STARLINK-4689,PAYLOAD,2022-10-09 06:00:00,15.19386918,0.0001375999999999,53.217,84.4575,95.4096,81.9883,-0.057919,-0.01144395,0.0,0 STARLINK-4689,1 53590U 22104C   22282.25001157 -.01144395  00000-0 -57919-1 0  9999,2 53590  53.2170  84.4575 0001376  95.4096  81.9883 15.19386918  6593,6885.829000000002,94.775,508.642,506.747,0.0
53590.0,STARLINK-4689,PAYLOAD,2022-10-09 14:00:01,15.18593391,0.0001475,53.2169,82.9377,103.4107,97.7522,-0.060022,-0.01157751,0.0,0 STARLINK-4689,1 53590U 22104C   22282.58334491 -.01157751  00000-0 -60022-1 0  9994,2 53590  53.2169  82.9377 0001475 103.4107  97.7522 15.18593391  1300,6888.228,94.825,511.109,509.077,0.0
53590.0,STARLINK-4689,PAYLOAD,2022-10-09 22:00:00,15.17770398,0.0001398,53.2173,81.4213,101.0169,122.9588,-0.0597549999999999,-0.01127842,0.0,0 STARLINK-4689,1 53590U 22104C   22282.91667824 -.01127842  00000-0 -59755-1 0  9999,2 53590  53.2173  81.4213 0001398 101.0169 122.9588 15.17770398  1300,6890.718000000003,94.876,513.5459999999998,511.619,0.0
53590.0,STARLINK-4689,PAYLOAD,2022-10-10 06:00:00,15.16969083,0.0001412,53.2174,79.9032,108.1811,137.6351,-0.0613169999999999,-0.01130641,0.0,0 STARLINK-4689,1 53590U 22104C   22283.25001157 -.01130641  00000-0 -61317-1 0  9996,2 53590  53.2174  79.9032 0001412 108.1811 137.6351 15.16969083  6745,6893.144,94.926,515.982,514.036,0.0
53590.0,STARLINK-4689,PAYLOAD,2022-10-10 14:00:01,15.16167041,0.0001409999999999,53.2176,78.3898,107.246,159.4444,-0.062832,-0.01132067,0.0,0 STARLINK-4689,1 53590U 22104C   22283.58334491 -.01132067  00000-0 -62832-1 0  9999,2 53590  53.2176  78.3898 0001410 107.2460 159.4444 15.16167041  1304,6895.575,94.976,518.4119999999998,516.4680000000002,0.0
53590.0,STARLINK-4689,PAYLOAD,2022-10-10 22:00:01,15.15363185,0.0001356,53.2172,76.8781,110.8246,175.83900000000003,-0.06416,-0.01129887,0.0,0 STARLINK-4689,1 53590U 22104C   22283.91668981 -.01129887  00000-0 -64160-1 0  9992,2 53590  53.2172  76.8781 0001356 110.8246 175.8390 15.15363185  1303,6898.013000000001,95.027,520.814,518.943,0.0
53590.0,STARLINK-4689,PAYLOAD,2022-10-11 06:00:00,15.1455943,0.0001315,53.2174,75.3658,111.2843,194.2632,-0.065594,-0.01129063,0.0,0 STARLINK-4689,1 53590U 22104C   22284.25001157 -.01129063  00000-0 -65594-1 0  9994,2 53590  53.2174  75.3658 0001315 111.2843 194.2632 15.14559430  6897,6900.453,95.077,523.226,521.411,0.0
53590.0,STARLINK-4689,PAYLOAD,2022-10-11 14:00:01,15.13758344,0.0001268,53.2176,73.858,101.8882,221.6386,-0.067273,-0.01131734,0.0,0 STARLINK-4689,1 53590U 22104C   22284.58334491 -.01131734  00000-0 -67273-1 0  9994,2 53590  53.2176  73.8580 0001268 101.8882 221.6386 15.13758344  1307,6902.888000000001,95.127,525.628,523.877,0.0
